CCSDS_OMM_VERS,COMMENT,CREATION_DATE,ORIGINATOR,OBJECT_NAME,OBJECT_ID,CENTER_NAME,REF_FRAME,TIME_SYSTEM,MEAN_ELEMENT_THEORY,EPOCH,MEAN_MOTION,ECCENTRICITY,INCLINATION,RA_OF_ASC_NODE,ARG_OF_PERICENTER,MEAN_ANOMALY,EPHEMERIS_TYPE,CLASSIFICATION_TYPE,NORAD_CAT_ID,ELEMENT_SET_NO,REV_AT_EPOCH,BSTAR,MEAN_MOTION_DOT,MEAN_MOTION_DDOT,SEMIMAJOR_AXIS,PERIOD,APOAPSIS,PERIAPSIS,OBJECT_TYPE,RCS_SIZE,COUNTRY_CODE,LAUNCH_DATE,SITE,DECAY_DATE,FILE,GP_ID,TLE_LINE0,TLE_LINE1,TLE_LINE2,norad_id
3.0,GENERATED VIA SPACE-TRACK.ORG API,2026-05-22T03:00:41,18 SPCS,QZS-2,2017-028A,EARTH,TEME,UTC,SGP4,2026-05-21 14:25:38.742240+00:00,1.00290802,0.07611329,39.4687,243.5464,268.9838,83.4780,0,U,42738,999,736,0.00000000000000,-0.00000219,0.0000000000000,42159.402,1435.825,38990.157,32572.376,PAYLOAD,LARGE,JPN,2017-06-01,TNSTA,,5208707,324257497,0 QZS-2,1 42738U 17028A   26141.60114285 -.00000219  00000-0  00000-0 0  9996,2 42738  39.4687 243.5464 0761133 268.9838  83.4780  1.00290802  7364,42738
3.0,GENERATED VIA SPACE-TRACK.ORG API,2026-05-22T22:26:34,18 SPCS,QZS-2,2017-028A,EARTH,TEME,UTC,SGP4,2026-05-22 14:19:23.869920+00:00,1.00290506,0.07610500,39.4669,243.5317,268.9917,82.9674,0,U,42738,999,737,0.00000000000000,-0.00000229,0.0000000000000,42159.485,1435.829,38989.897,32572.802,PAYLOAD,LARGE,JPN,2017-06-01,TNSTA,,5209272,324391227,0 QZS-2,1 42738U 17028A   26142.59680405 -.00000229  00000-0  00000+0 0  9997,2 42738  39.4669 243.5317 0761050 268.9917  82.9674  1.00290506  7375,42738
3.0,GENERATED VIA SPACE-TRACK.ORG API,2026-05-23T17:30:58,18 SPCS,QZS-2,2017-028A,EARTH,TEME,UTC,SGP4,2026-05-22 14:19:23.870784+00:00,1.00290506,0.07610501,39.4669,243.5318,268.9917,82.9674,0,U,42738,999,737,0.00000000000000,-0.00000229,0.0000000000000,42159.485,1435.829,38989.897,32572.802,PAYLOAD,LARGE,JPN,2017-06-01,TNSTA,,5210736,324547248,0 QZS-2,1 42738U 17028A   26142.59680406 -.00000229  00000-0  00000-0 0  9999,2 42738  39.4669 243.5318 0761050 268.9917  82.9674  1.00290506  7376,42738
3.0,GENERATED VIA SPACE-TRACK.ORG API,2026-05-23T23:57:06,18 SPCS,QZS-2,2017-028A,EARTH,TEME,UTC,SGP4,2026-05-23 13:42:40.346784+00:00,1.00290225,0.07607160,39.4655,243.5175,269.0027,74.8135,0,U,42738,999,737,0.00000000000000,-0.00000234,0.0000000000000,42159.563,1435.833,38988.574,32574.283,PAYLOAD,LARGE,JPN,2017-06-01,TNSTA,,5210981,324589148,0 QZS-2,1 42738U 17028A   26143.57130031 -.00000234  00000-0  00000+0 0  9997,2 42738  39.4655 243.5175 0760716 269.0027  74.8135  1.00290225  7374,42738
3.0,GENERATED VIA SPACE-TRACK.ORG API,2026-05-25T04:06:45,18 SPCS,QZS-2,2017-028A,EARTH,TEME,UTC,SGP4,2026-05-24 14:13:41.801952+00:00,1.00289926,0.07606997,39.4639,243.5025,269.0109,83.6451,0,U,42738,999,739,0.00000000000000,-0.00000234,0.0000000000000,42159.647,1435.837,38988.595,32574.429,PAYLOAD,LARGE,JPN,2017-06-01,TNSTA,,5212715,324759945,0 QZS-2,1 42738U 17028A   26144.59284493 -.00000234  00000-0  00000-0 0  9993,2 42738  39.4639 243.5025 0760700 269.0109  83.6451  1.00289926  7391,42738
3.0,GENERATED VIA SPACE-TRACK.ORG API,2026-05-26T10:30:27,18 SPCS,QZS-2,2017-028A,EARTH,TEME,UTC,SGP4,2026-05-25 13:25:01.121664+00:00,1.00289658,0.07606261,39.4625,243.4883,269.0192,72.4917,0,U,42738,999,739,0.00000000000000,-0.00000230,0.0000000000000,42159.722,1435.841,38988.366,32574.809,PAYLOAD,LARGE,JPN,2017-06-01,TNSTA,,5214595,324999976,0 QZS-2,1 42738U 17028A   26145.55904076 -.00000230  00000-0  00000-0 0  9992,2 42738  39.4625 243.4883 0760626 269.0192  72.4917  1.00289658  7391,42738
3.0,GENERATED VIA SPACE-TRACK.ORG API,2026-05-27T23:07:14,18 SPCS,QZS-2,2017-028A,EARTH,TEME,UTC,SGP4,2026-05-27 13:20:30.517728+00:00,1.00289116,0.07603010,39.4596,243.4590,269.0384,73.4616,0,U,42738,999,741,0.00000000000000,-0.00000212,0.0000000000000,42159.874,1435.849,38987.159,32576.320,PAYLOAD,LARGE,JPN,2017-06-01,TNSTA,,5216701,325338306,0 QZS-2,1 42738U 17028A   26147.55590877 -.00000212  00000-0  00000+0 0  9993,2 42738  39.4596 243.4590 0760301 269.0384  73.4616  1.00289116  7415,42738
3.0,GENERATED VIA SPACE-TRACK.ORG API,2026-05-28T02:30:48,18 SPCS,QZS-2,2017-028A,EARTH,TEME,UTC,SGP4,2026-05-27 13:20:30.518592+00:00,1.00289116,0.07603005,39.4596,243.4590,269.0384,73.4616,0,U,42738,999,741,0.00000000000000,-0.00000212,0.0000000000000,42159.874,1435.849,38987.157,32576.322,PAYLOAD,LARGE,JPN,2017-06-01,TNSTA,,5217309,325411160,0 QZS-2,1 42738U 17028A   26147.55590878 -.00000212  00000-0  00000-0 0  9995,2 42738  39.4596 243.4590 0760301 269.0384  73.4616  1.00289116  7415,42738
3.0,GENERATED VIA SPACE-TRACK.ORG API,2026-05-30T21:02:43,18 SPCS,QZS-2,2017-028A,EARTH,TEME,UTC,SGP4,2026-05-29 13:18:27.821088+00:00,1.00288760,0.07611766,39.4567,243.4296,269.0517,75.0389,0,U,42738,999,743,0.00000000000000,-0.00000191,0.0000000000000,42159.974,1435.854,38990.958,32572.720,PAYLOAD,LARGE,JPN,2017-06-01,TNSTA,,5223167,326095493,0 QZS-2,1 42738U 17028A   26149.55448867 -.00000191  00000-0  00000-0 0  9993,2 42738  39.4567 243.4296 0761177 269.0517  75.0389  1.00288760  7437,42738
3.0,GENERATED VIA SPACE-TRACK.ORG API,2026-05-31T06:06:41,18 SPCS,QZS-2,2017-028A,EARTH,TEME,UTC,SGP4,2026-05-30 13:41:38.690016+00:00,1.00288482,0.07612143,39.4552,243.4145,269.0616,81.8956,0,U,42738,999,744,0.00000000000000,-0.00000182,0.0000000000000,42160.052,1435.858,38991.200,32572.633,PAYLOAD,LARGE,JPN,2017-06-01,TNSTA,,5223946,326204185,0 QZS-2,1 42738U 17028A   26150.57058669 -.00000182  00000-0  00000-0 0  9994,2 42738  39.4552 243.4145 0761214 269.0616  81.8956  1.00288482  7443,42738
3.0,GENERATED VIA SPACE-TRACK.ORG API,2026-06-02T07:37:26,18 SPCS,QZS-2,2017-028A,EARTH,TEME,UTC,SGP4,2026-06-01 12:42:00.409824+00:00,1.00288013,0.07599818,39.4518,243.3854,269.0971,69.0278,0,U,42738,999,746,0.00000000000000,-0.00000168,0.0000000000000,42160.183,1435.865,38986.145,32577.951,PAYLOAD,LARGE,JPN,2017-06-01,TNSTA,,5227263,326608855,0 QZS-2,1 42738U 17028A   26152.52917141 -.00000168  00000-0  00000-0 0  9994,2 42738  39.4518 243.3854 0759982 269.0971  69.0278  1.00288013  7461,42738
3.0,GENERATED VIA SPACE-TRACK.ORG API,2026-06-03T03:08:42,18 SPCS,QZS-2,2017-028A,EARTH,TEME,UTC,SGP4,2026-06-02 13:32:51.927360+00:00,1.00287742,0.07600402,39.4502,243.3700,269.1087,82.8191,0,U,42738,999,748,0.00000000000000,-0.00000162,0.0000000000000,42160.259,1435.868,38986.474,32577.775,PAYLOAD,LARGE,JPN,2017-06-01,TNSTA,,5227853,326759883,0 QZS-2,1 42738U 17028A   26153.56448990 -.00000162  00000-0  00000-0 0  9994,2 42738  39.4502 243.3700 0760040 269.1087  82.8191  1.00287742  7487,42738
3.0,GENERATED VIA SPACE-TRACK.ORG API,2026-06-03T21:59:02,18 SPCS,QZS-2,2017-028A,EARTH,TEME,UTC,SGP4,2026-06-03 14:37:16.987296+00:00,1.00287507,0.07595905,39.4485,243.3546,269.1264,100.0088,0,U,42738,999,749,0.00000000000000,-0.00000158,0.0000000000000,42160.325,1435.872,38984.648,32579.732,PAYLOAD,LARGE,JPN,2017-06-01,TNSTA,,5228922,326927381,0 QZS-2,1 42738U 17028A   26154.60922439 -.00000158  00000-0  00000-0 0  9990,2 42738  39.4485 243.3546 0759590 269.1264 100.0088  1.00287507  7498,42738
3.0,GENERATED VIA SPACE-TRACK.ORG API,2026-06-05T08:06:49,18 SPCS,QZS-2,2017-028A,EARTH,TEME,UTC,SGP4,2026-06-04 12:56:27.116736+00:00,1.00287296,0.07606630,39.4467,243.3410,269.1234,75.7690,0,U,42738,999,749,0.00000000000000,-0.00000155,0.0000000000000,42160.384,1435.875,38989.234,32575.265,PAYLOAD,LARGE,JPN,2017-06-01,TNSTA,,5230559,327196271,0 QZS-2,1 42738U 17028A   26155.53920274 -.00000155  00000-0  00000+0 0  9994,2 42738  39.4467 243.3410 0760663 269.1234  75.7690  1.00287296  7490,42738
3.0,GENERATED VIA SPACE-TRACK.ORG API,2026-06-05T02:58:45,18 SPCS,QZS-2,2017-028A,EARTH,TEME,UTC,SGP4,2026-06-04 12:56:27.117600+00:00,1.00287296,0.07606634,39.4467,243.3410,269.1234,75.7690,0,U,42738,999,749,0.00000000000000,-0.00000155,0.0000000000000,42160.384,1435.875,38989.235,32575.263,PAYLOAD,LARGE,JPN,2017-06-01,TNSTA,,5230353,327159096,0 QZS-2,1 42738U 17028A   26155.53920275 -.00000155  00000-0  00000-0 0  9996,2 42738  39.4467 243.3410 0760663 269.1234  75.7690  1.00287296  7490,42738
3.0,GENERATED VIA SPACE-TRACK.ORG API,2026-06-05T20:06:26,18 SPCS,QZS-2,2017-028A,EARTH,TEME,UTC,SGP4,2026-06-05 12:36:28.613952+00:00,1.00287038,0.07605890,39.4451,243.3264,269.1343,71.7999,0,U,42738,999,750,0.00000000000000,-0.00000153,0.0000000000000,42160.457,1435.878,38988.999,32575.644,PAYLOAD,LARGE,JPN,2017-06-01,TNSTA,,5231311,327301797,0 QZS-2,1 42738U 17028A   26156.52533118 -.00000153  00000-0  00000+0 0  9999,2 42738  39.4451 243.3264 0760589 269.1343  71.7999  1.00287038  7502,42738
3.0,GENERATED VIA SPACE-TRACK.ORG API,2026-06-06T04:26:37,18 SPCS,QZS-2,2017-028A,EARTH,TEME,UTC,SGP4,2026-06-05 12:36:28.614816+00:00,1.00287038,0.07605892,39.4451,243.3265,269.1343,71.7999,0,U,42738,999,750,0.00000000000000,-0.00000153,0.0000000000000,42160.456,1435.878,38989.000,32575.643,PAYLOAD,LARGE,JPN,2017-06-01,TNSTA,,5232243,327403634,0 QZS-2,1 42738U 17028A   26156.52533119 -.00000153  00000-0  00000-0 0  9991,2 42738  39.4451 243.3265 0760589 269.1343  71.7999  1.00287038  7503,42738
3.0,GENERATED VIA SPACE-TRACK.ORG API,2026-06-06T22:36:27,18 SPCS,QZS-2,2017-028A,EARTH,TEME,UTC,SGP4,2026-06-06 12:59:41.128800+00:00,1.00286802,0.07605310,39.4434,243.3115,269.1455,78.6569,0,U,42738,999,751,0.00000000000000,-0.00000152,0.0000000000000,42160.523,1435.882,38988.826,32575.949,PAYLOAD,LARGE,JPN,2017-06-01,TNSTA,,5233678,327626996,0 QZS-2,1 42738U 17028A   26157.54144825 -.00000152  00000-0  00000+0 0  9994,2 42738  39.4434 243.3115 0760531 269.1455  78.6569  1.00286802  7517,42738
